[Satellite]
VERSION=1.1
NAME=IMS-1
NICKNAME=IMS-1
TLE1=1 32786U 08021D   15055.42973497  .00002068  00000-0  25906-3 0  9999
TLE2=2 32786  97.6709  95.2422 0013711 104.2874 255.9868 14.83199263368915
